[{"OBJECT_NAME":"STARLINK-34006","OBJECT_ID":"2025-094F","EPOCH":"2026-03-09T21:07:40.168128","MEAN_MOTION":14.98349254,"ECCENTRICITY":0.00031298,"INCLINATION":70.0018,"RA_OF_ASC_NODE":233.8967,"ARG_OF_PERICENTER":265.4706,"MEAN_ANOMALY":94.6096,"EPHEMERIS_TYPE":0,"CLASSIFICATION_TYPE":"U","NORAD_CAT_ID":63869,"ELEMENT_SET_NO":999,"REV_AT_EPOCH":4723,"BSTAR":0.00026398316,"MEAN_MOTION_DOT":3.06e-5,"MEAN_MOTION_DDOT":0},{"OBJECT_NAME":"UNISAT-5","OBJECT_ID":"2013-066F","EPOCH":"2026-03-09T22:02:55.134816","MEAN_MOTION":15.04155626,"ECCENTRICITY":0.00317175,"INCLINATION":97.6976,"RA_OF_ASC_NODE":39.5171,"ARG_OF_PERICENTER":68.1555,"MEAN_ANOMALY":292.3039,"EPHEMERIS_TYPE":0,"CLASSIFICATION_TYPE":"U","NORAD_CAT_ID":39421,"ELEMENT_SET_NO":999,"REV_AT_EPOCH":66774,"BSTAR":0.0004680489,"MEAN_MOTION_DOT":6.504e-5,"MEAN_MOTION_DDOT":0}]
